0 COSMOS 2251 DEB
1 34431U 93036RY  13281.64096747  .00000804  00000-0  37951-3 0  1840
2 34431 074.0801 228.8522 0078538 244.3841 114.9173 14.19826797239737
0 COSMOS 2251 DEB
1 34431U 93036RY  13282.97969423  .00000802  00000-0  37847-3 0  1850
2 34431 074.0802 226.4648 0078458 241.6765 117.6450 14.19830881239925
0 COSMOS 2251 DEB
1 34431U 93036RY  13284.03658179  .00000789  00000-0  37254-3 0  1869
2 34431 074.0804 224.5801 0078469 239.5578 119.7798 14.19832778240070
0 COSMOS 2251 DEB
1 34431U 93036RY  13285.23438665  .00000597  00000-0  28451-3 0  1875
2 34431 074.0807 222.4439 0078424 237.1609 122.1968 14.19835499240246
0 COSMOS 2251 DEB
1 34431U 93036RY  13286.99586081  .00000583  00000-0  27820-3 0  1880
2 34431 074.0807 219.3023 0078302 233.6087 125.7818 14.19838577240496
0 COSMOS 2251 DEB
1 34431U 93036RY  13288.12320240  .00000786  00000-0  37112-3 0  1891
2 34431 074.0807 217.2919 0078248 231.3279 128.0848 14.19841668240656
0 COSMOS 2251 DEB
1 34431U 93036RY  13289.18008298  .00000596  00000-0  28426-3 0  1903
2 34431 074.0806 215.4073 0078195 229.1856 130.2491 14.19843079240807
0 COSMOS 2251 DEB
1 34431U 93036RY  13290.73017237  .00000712  00000-0  33740-3 0  1915
2 34431 074.0805 212.6431 0078129 226.0386 133.4298 14.19844533241025
0 COSMOS 2251 DEB
1 34431U 93036RY  13291.78705026  .00000780  00000-0  36817-3 0  1925
2 34431 074.0804 210.7583 0078077 223.8835 135.6091 14.19844938241177
0 COSMOS 2251 DEB
1 34431U 93036RY  13292.84392768  .00000896  00000-0  42122-3 0  1933
2 34431 074.0803 208.8737 0078009 221.7198 137.7983 14.19845821241321
0 COSMOS 2251 DEB
1 34431U 93036RY  13293.97126326  .00000920  00000-0  43241-3 0  1945
2 34431 074.0802 206.8635 0077954 219.4135 140.1324 14.19847726241488
0 COSMOS 2251 DEB
1 34431U 93036RY  13295.16905645  .00000905  00000-0  42550-3 0  1953
2 34431 074.0802 204.7274 0077904 216.9814 142.5947 14.19849946241657
